NORAD_CAT_ID,OBJECT_NAME,OBJECT_TYPE,EPOCH,MEAN_MOTION,ECCENTRICITY,INCLINATION,RA_OF_ASC_NODE,ARG_OF_PERICENTER,MEAN_ANOMALY,BSTAR,MEAN_MOTION_DOT,MEAN_MOTION_DDOT,TLE_LINE0,TLE_LINE1,TLE_LINE2,SEMIMAJOR_AXIS,PERIOD,APOGEE,PERIGEE,DECAYED
53535.0,STARLINK-4138,PAYLOAD,2023-06-15 13:21:12,15.08842545,0.0001237,53.2177,234.9154,93.4925,266.6208,-0.00010203,-1.911e-05,0.0,0 STARLINK-4138,1 53535U 22101J   23166.55638949 -.00001911  00000-0 -10203-3 0  9997,2 53535  53.2177 234.9154 0001237  93.4925 266.6208 15.08842545 45484,6917.873,95.437,540.593,538.882,0.0
53535.0,STARLINK-4138,PAYLOAD,2023-06-16 10:01:12,15.0884624,0.0001089,53.217,231.049,95.6825,264.4291,0.00022039,3.222e-05,0.0,0 STARLINK-4138,1 53535U 22101J   23167.41750149  .00003222  00000-0  22039-3 0  9995,2 53535  53.2170 231.0490 0001089  95.6825 264.4291 15.08846240 45615,6917.861,95.437,540.48,538.973,0.0
53535.0,STARLINK-4138,PAYLOAD,2023-06-16 11:36:35,15.08852353,9.97e-05,53.2148,230.7511,89.2229,270.8878,0.00021944,3.207e-05,0.0,0 STARLINK-4138,1 53535U 22101J   23167.48373992  .00003207  00000-0  21944-3 0  9996,2 53535  53.2148 230.7511 0000997  89.2229 270.8878 15.08852353 45629,6917.843,95.437,540.397,539.018,0.0
53535.0,STARLINK-4138,PAYLOAD,2023-06-16 21:08:54,15.08841022,0.0001111,53.2158,228.967,92.0072,268.1047,0.00017237,2.457e-05,0.0,0 STARLINK-4138,1 53535U 22101J   23167.88118475  .00002457  00000-0  17237-3 0  9999,2 53535  53.2158 228.9670 0001111  92.0072 268.1047 15.08841022 45687,6917.877,95.437,540.511,538.974,0.0
53535.0,STARLINK-4138,PAYLOAD,2023-06-17 05:05:50,15.0883261,0.0001121,53.2163,227.4803,91.962,268.1501,1.5418e-05,-4.2e-07,0.0,0 STARLINK-4138,1 53535U 22101J   23168.21239000 -.00000042  00000-0  15418-4 0  9994,2 53535  53.2163 227.4803 0001121  91.9620 268.1501 15.08832610 45737,6917.903,95.438,540.543,538.992,0.0
53535.0,STARLINK-4138,PAYLOAD,2023-06-17 13:02:46,15.08832243,0.0001385,53.2161,225.9923,100.1346,259.9802,7.6791e-05,9.34e-06,0.0,0 STARLINK-4138,1 53535U 22101J   23168.54359326  .00000934  00000-0  76791-4 0  9994,2 53535  53.2161 225.9923 0001385 100.1346 259.9802 15.08832243 45780,6917.904,95.438,540.727,538.811,0.0
53535.0,STARLINK-4138,PAYLOAD,2023-06-17 20:59:42,15.08835913,9.88e-05,53.2157,224.5058,86.9874,273.1231,4.6016e-05,4.45e-06,0.0,0 STARLINK-4138,1 53535U 22101J   23168.87479226  .00000445  00000-0  46016-4 0  9996,2 53535  53.2157 224.5058 0000988  86.9874 273.1231 15.08835913 45831,6917.893,95.438,540.441,539.074,0.0
53535.0,STARLINK-4138,PAYLOAD,2023-06-18 09:42:47,15.08834954,6.99e-05,53.2165,222.126,89.5244,270.5828,0.00010092,1.319e-05,0.0,0 STARLINK-4138,1 53535U 22101J   23169.40471152  .00001319  00000-0  10092-3 0  9991,2 53535  53.2165 222.1260 0000699  89.5244 270.5828 15.08834954 45914,6917.896,95.438,540.244,539.277,0.0
53535.0,STARLINK-4138,PAYLOAD,2023-06-18 11:18:10,15.08843456,9.89e-05,53.2158,221.8296,92.3011,267.8094,-2.3308e-05,-6.59e-06,0.0,0 STARLINK-4138,1 53535U 22101J   23169.47094965 -.00000659  00000-0 -23308-4 0  9994,2 53535  53.2158 221.8296 0000989  92.3011 267.8094 15.08843456 45929,6917.87,95.437,540.419,539.051,0.0
53535.0,STARLINK-4138,PAYLOAD,2023-06-19 09:33:33,15.08837947,9.53e-05,53.2155,217.6654,93.1486,266.9615,0.00011871,1.602e-05,0.0,0 STARLINK-4138,1 53535U 22101J   23170.39830964  .00001602  00000-0  11871-3 0  9992,2 53535  53.2155 217.6654 0000953  93.1486 266.9615 15.08837947 46066,6917.887,95.438,540.411,539.092,0.0
53535.0,STARLINK-4138,PAYLOAD,2023-06-19 20:41:15,15.08839876,9.48e-05,53.2155,215.5842,90.3551,269.755,9.0461e-05,1.152e-05,0.0,0 STARLINK-4138,1 53535U 22101J   23170.86198961  .00001152  00000-0  90461-4 0  9991,2 53535  53.2155 215.5842 0000948  90.3551 269.7550 15.08839876 46138,6917.881,95.438,540.402,539.09,0.0
53535.0,STARLINK-4138,PAYLOAD,2023-06-20 03:02:48,15.08838196,9.76e-05,53.2152,214.395,89.7142,270.3962,7.6312e-05,9.27e-06,0.0,0 STARLINK-4138,1 53535U 22101J   23171.12695151  .00000927  00000-0  76312-4 0  9992,2 53535  53.2152 214.3950 0000976  89.7142 270.3962 15.08838196 46174,6917.886,95.438,540.426,539.076,0.0
53535.0,STARLINK-4138,PAYLOAD,2023-06-20 09:24:21,15.08839931,9.78e-05,53.2152,213.2055,89.2143,270.8961,8.4742e-05,1.061e-05,0.0,0 STARLINK-4138,1 53535U 22101J   23171.39191025  .00001061  00000-0  84742-4 0  9998,2 53535  53.2152 213.2055 0000978  89.2143 270.8961 15.08839931 46213,6917.881,95.438,540.422,539.069,0.0
53535.0,STARLINK-4138,PAYLOAD,2023-06-21 09:15:07,15.08842711,0.0001024,53.2154,208.745,89.5872,270.5238,5.056e-05,5.17e-06,0.0,0 STARLINK-4138,1 53535U 22101J   23172.38550897  .00000517  00000-0  50560-4 0  9990,2 53535  53.2154 208.7450 0001024  89.5872 270.5238 15.08842711 46368,6917.872,95.437,540.445,539.029,0.0
53535.0,STARLINK-4138,PAYLOAD,2023-06-22 09:05:55,15.08837424,0.0001052,53.2157,204.285,88.7257,271.3856,1.2001e-05,-9.7e-07,0.0,0 STARLINK-4138,1 53535U 22101J   23173.37911387 -.00000097  00000-0  12001-4 0  9997,2 53535  53.2157 204.2850 0001052  88.7257 271.3856 15.08837424 46512,6917.888,95.438,540.481,539.026,0.0
53535.0,STARLINK-4138,PAYLOAD,2023-06-23 12:07:28,15.08839399,9.98e-05,53.2154,199.2295,88.7028,271.4078,3.1486e-05,2.13e-06,0.0,0 STARLINK-4138,1 53535U 22101J   23174.50519357  .00000213  00000-0  31486-4 0  9991,2 53535  53.2154 199.2295 0000998  88.7028 271.4078 15.08839399 46687,6917.882,95.438,540.438,539.057,0.0
53535.0,STARLINK-4138,PAYLOAD,2023-06-24 08:47:29,15.08835964,9.63e-05,53.2151,195.3633,86.3403,273.77,3.8894e-05,3.31e-06,0.0,0 STARLINK-4138,1 53535U 22101J   23175.36631808  .00000331  00000-0  38894-4 0  9993,2 53535  53.2151 195.3633 0000963  86.3403 273.7700 15.08835964 46816,6917.893,95.438,540.424,539.092,0.0
53535.0,STARLINK-4138,PAYLOAD,2023-06-25 08:38:16,15.08842356,9.84e-05,53.2152,190.9027,88.735,271.3755,7.2901e-05,8.73e-06,0.0,0 STARLINK-4138,1 53535U 22101J   23176.35991432  .00000873  00000-0  72901-4 0  9993,2 53535  53.2152 190.9027 0000984  88.7350 271.3755 15.08842356 46968,6917.873,95.437,540.419,539.057,0.0
53535.0,STARLINK-4138,PAYLOAD,2023-06-26 00:32:08,15.08837348,0.0001069,53.2152,187.9287,85.0894,275.022,4.539e-05,4.35e-06,0.0,0 STARLINK-4138,1 53535U 22101J   23177.02231906  .00000435  00000-0  45390-4 0  9997,2 53535  53.2152 187.9287 0001069  85.0894 275.0220 15.08837348 47065,6917.888,95.438,540.493,539.014,0.0
53535.0,STARLINK-4138,PAYLOAD,2023-06-27 06:44:27,15.08840856,0.0001056,53.215,182.2784,84.4337,275.6776,2.8624e-05,1.68e-06,0.0,0 STARLINK-4138,1 53535U 22101J   23178.28087809  .00000168  00000-0  28624-4 0  9991,2 53535  53.2150 182.2784 0001056  84.4337 275.6776 15.08840856 47255,6917.878,95.438,540.473,539.012,0.0
53535.0,STARLINK-4138,PAYLOAD,2023-06-28 09:46:01,15.08840553,0.0001065,53.2155,177.2236,81.3226,278.7887,6.0675e-05,6.78e-06,0.0,0 STARLINK-4138,1 53535U 22101J   23179.40695682  .00000678  00000-0  60675-4 0  9998,2 53535  53.2155 177.2236 0001065  81.3226 278.7887 15.08840553 47429,6917.879,95.438,540.48,539.007,0.0
53535.0,STARLINK-4138,PAYLOAD,2023-06-29 09:36:48,15.08837518,0.0001097,53.2156,172.7629,81.2286,278.883,1.4873e-05,-5.1e-07,0.0,0 STARLINK-4138,1 53535U 22101J   23180.40056083 -.00000051  00000-0  14873-4 0  9991,2 53535  53.2156 172.7629 0001097  81.2286 278.8830 15.08837518 47578,6917.888,95.438,540.512,538.994,0.0
53535.0,STARLINK-4138,PAYLOAD,2023-07-01 07:42:59,15.08835258,0.0001121,53.2159,164.1398,79.9554,280.1564,2.6218e-05,1.29e-06,0.0,0 STARLINK-4138,1 53535U 22101J   23182.32152473  .00000129  00000-0  26218-4 0  9995,2 53535  53.2159 164.1398 0001121  79.9554 280.1564 15.08835258 47860,6917.895,95.438,540.535,538.984,0.0
53535.0,STARLINK-4138,PAYLOAD,2023-07-02 15:30:42,15.08838298,0.0001109,53.2162,158.1929,84.7079,275.404,4.22e-05,3.84e-06,0.0,0 STARLINK-4138,1 53535U 22101J   23183.64632492  .00000384  00000-0  42200-4 0  9997,2 53535  53.2162 158.1929 0001109  84.7079 275.4040 15.08838298 48065,6917.886,95.438,540.518,538.983,0.0
53535.0,STARLINK-4138,PAYLOAD,2023-07-04 02:29:11,15.08836303,0.0001145,53.2162,151.6502,86.6925,273.4198,2.1879e-05,6e-07,0.0,0 STARLINK-4138,1 53535U 22101J   23185.10360844  .00000060  00000-0  21879-4 0  9999,2 53535  53.2162 151.6502 0001145  86.6925 273.4198 15.08836303 48282,6917.892,95.438,540.549,538.965,0.0
53535.0,STARLINK-4138,PAYLOAD,2023-07-05 00:44:35,15.08843346,0.0001169,53.2161,147.487,86.3171,273.7955,4.6326e-05,4.5e-06,0.0,0 STARLINK-4138,1 53535U 22101J   23186.03096327  .00000450  00000-0  46326-4 0  9991,2 53535  53.2161 147.4870 0001169  86.3171 273.7955 15.08843346 48423,6917.87,95.437,540.544,538.926,0.0
53535.0,STARLINK-4138,PAYLOAD,2023-07-06 06:56:55,15.0883745,0.0001183,53.2164,141.8369,86.7795,273.3332,2.68e-05,1.39e-06,0.0,0 STARLINK-4138,1 53535U 22101J   23187.28952777  .00000139  00000-0  26800-4 0  9998,2 53535  53.2164 141.8369 0001183  86.7795 273.3332 15.08837450 48614,6917.888,95.438,540.572,538.935,0.0
53535.0,STARLINK-4138,PAYLOAD,2023-07-07 13:09:14,15.08839991,0.000127,53.2172,136.187,83.5713,276.5424,-4.3482e-05,-9.8e-06,0.0,0 STARLINK-4138,1 53535U 22101J   23188.54808935 -.00000980  00000-0 -43482-4 0  9995,2 53535  53.2172 136.1870 0001270  83.5713 276.5424 15.08839991 48809,6917.88,95.438,540.624,538.867,0.0
53535.0,STARLINK-4138,PAYLOAD,2023-07-09 04:53:54,15.08832476,0.0001127,53.2157,128.7538,91.5136,268.5985,-1.5343e-05,-5.32e-06,0.0,0 STARLINK-4138,1 53535U 22101J   23190.20409816 -.00000532  00000-0 -15343-4 0  9994,2 53535  53.2157 128.7538 0001127  91.5136 268.5985 15.08832476 49051,6917.903,95.438,540.548,538.989,0.0
53535.0,STARLINK-4138,PAYLOAD,2023-07-10 01:33:54,15.08840648,0.0001443,53.2163,124.8887,119.2532,240.8604,1.2357e-05,-9.1e-07,0.0,0 STARLINK-4138,1 53535U 22101J   23191.06521418 -.00000091  00000-0  12357-4 0  9993,2 53535  53.2163 124.8887 0001443 119.2532 240.8604 15.08840648 49186,6917.878,95.438,540.742,538.745,0.0
